[{"OBJECT_NAME":"LAPAN-A3","OBJECT_ID":"2016-040E","EPOCH":"2026-03-09T23:01:57.724896","MEAN_MOTION":15.3238951,"ECCENTRICITY":0.00109839,"INCLINATION":97.1488,"RA_OF_ASC_NODE":68.4254,"ARG_OF_PERICENTER":22.062,"MEAN_ANOMALY":338.1093,"EPHEMERIS_TYPE":0,"CLASSIFICATION_TYPE":"U","NORAD_CAT_ID":41603,"ELEMENT_SET_NO":999,"REV_AT_EPOCH":53961,"BSTAR":0.00017567445,"MEAN_MOTION_DOT":5.428e-5,"MEAN_MOTION_DDOT":0},{"OBJECT_NAME":"STARLINK-32240","OBJECT_ID":"2024-144P","EPOCH":"2026-03-09T16:58:44.041152","MEAN_MOTION":15.3018597,"ECCENTRICITY":9.07e-5,"INCLINATION":53.1587,"RA_OF_ASC_NODE":216.924,"ARG_OF_PERICENTER":72.228,"MEAN_ANOMALY":287.882,"EPHEMERIS_TYPE":0,"CLASSIFICATION_TYPE":"U","NORAD_CAT_ID":60438,"ELEMENT_SET_NO":999,"REV_AT_EPOCH":8935,"BSTAR":2.6835217e-5,"MEAN_MOTION_DOT":4.36e-6,"MEAN_MOTION_DDOT":0}]
